satname,norad_id,inclination_deg,eccentricity,mean_motion_rev_per_day,perigee_km,apogee_km,l1,l2
STARLINK-1008,44714,53.1355,0.000152,15.26745944,484.5044165739546,486.5909767217354,1 44714U 19074B   26026.91670139  .01491015  00000+0  51140-1 0  9995,2 44714  53.1355  13.0135 0001520  76.4478 239.8223 15.26745944  5888
STARLINK-1012,44718,53.165,0.0001815,15.31134609,471.18253781565545,473.66929215379514,1 44718U 19074F   26026.91670139 -.00308375  00000+0 -10524-1 0  9997,2 44718  53.1650  12.8435 0001815  91.8105  79.2989 15.31134609  5831
STARLINK-1017,44723,53.0459,0.0001423,15.20828366,502.36143890063886,504.3199074464237,1 44723U 19074L   26026.65727296  .00066813  00000+0  29775-2 0  9996,2 44723  53.0459   4.8653 0001423  99.8761 260.2395 15.20828366342562
STARLINK-1019,44724,53.0499,0.0010771,15.68263436,356.60762930560213,371.13125958823093,1 44724U 19074M   26026.91670139  .00202971  00000+0  17353-2 0  9995,2 44724  53.0499 344.8269 0010771  52.8330 253.9760 15.68263436  5940
STARLINK-1020,44725,53.0549,0.0001396,15.06399769,546.245487162575,548.1790446776204,1 44725U 19074N   26026.75342982 -.00000631  00000+0 -23437-4 0  9993,2 44725  53.0549  34.8777 0001396  94.3833 265.7315 15.06399769342143
STARLINK-1031,44736,53.0491,0.0007294,15.73494539,344.0118464869074,353.82527513902187,1 44736U 19074Z   26026.91670139  .00213843  00000+0  14690-2 0  9999,2 44736  53.0491 330.2760 0007294  86.9669 137.6933 15.73494539  5956
STARLINK-1036,44741,53.056,0.0001597,15.46436239,426.0744284632092,428.24804071933795,1 44741U 19074AE  26026.28674576  .00116571  00000+0  22903-2 0  9990,2 44741  53.0560  32.4153 0001597  70.6218 289.4961 15.46436239342141
STARLINK-1039,44744,53.0486,0.00042,15.1790994,509.26442349713943,515.0522715890756,1 44744U 19074AH  26026.32991347  .00051507  00000+0  25061-2 0  9991,2 44744  53.0486  49.2454 0004200  51.5952 308.5419 15.17909940341915
STARLINK-1042,44747,53.0452,0.0003801,15.47572786,421.24349738131514,426.4143518772189,1 44747U 19074AL  26026.77106098  .00029483  00000+0  56940-3 0  9993,2 44747  53.0452 295.5714 0003801  72.4913 287.6509 15.47572786343579
STARLINK-1043,44748,53.0541,0.000259,15.50529113,413.4206955746149,416.93963386593987,1 44748U 19074AM  26026.91670139  .00126092  00000+0  21442-2 0  9994,2 44748  53.0541  35.5990 0002590   8.4994 249.6553 15.50529113  5964
STARLINK-1046,44751,53.0553,0.0003678,15.38932059,446.75495524861253,451.7771929499195,1 44751U 19074AQ  26026.34610824  .00093417  00000+0  23692-2 0  9993,2 44751  53.0553  51.5162 0003678  40.7450 319.3828 15.38932059341881
STARLINK-1047,44752,53.0713,0.0004747,15.31518929,468.0283934733279,474.5312297942937,1 44752U 19074AR  26026.15884570  .00016798  00000+0  55483-3 0  9995,2 44752  53.0713 344.5336 0004747  85.2525 274.9017 15.31518929342823
STARLINK-1048,44753,53.0549,0.0003381,15.42544042,436.2992513969284,440.9087316553987,1 44753U 19074AS  26026.91670139  .00147025  00000+0  32807-2 0  9996,2 44753  53.0549   9.0640 0003381  77.6144 300.1241 15.42544042  5731
STARLINK-1053,44758,53.0337,0.0003238,15.7602006,339.55415496452497,343.9059408647554,1 44758U 19074AX  26025.74248328  .00158251  00000+0  98288-3 0  9991,2 44758  53.0337 299.9440 0003238 113.8646 246.2712 15.76020060343408
STARLINK-1060,44765,53.0408,0.0002085,15.98366519,277.5623973210104,280.33840276682895,1 44765U 19074BE  26026.91670139  .00452293  97124-4  95108-3 0  9997,2 44765  53.0408 334.0155 0002085 117.7581 137.7417 15.98366519  6069
STARLINK-1063,44768,53.1412,0.0001205,15.26151557,486.5024153675604,488.1569928432491,1 44768U 19074BH  26026.91670139  .01647623  00000+0  56975-1 0  9993,2 44768  53.1412  53.3604 0001205  86.9637 121.9182 15.26151557  5787
STARLINK-1067,44771,53.055,0.0005077,15.46486089,423.5600151530716,430.46996648454933,1 44771U 19074BL  26026.91670139  .00194435  00000+0  37687-2 0  9994,2 44771  53.0550  45.3486 0005077  62.5475 311.8228 15.46486089  5866
STARLINK-1068,44772,53.053,0.0001846,15.53188836,406.1699607010378,408.67518929612834,1 44772U 19074BM  26026.91670139  .00151633  00000+0  23354-2 0  9994,2 44772  53.0530  22.9436 0001846  89.3074 118.6325 15.53188836  5883
STARLINK-1112,44925,53.0408,0.0001845,15.80982915,326.4225949040856,328.8970339286052,1 44925U 20001M   26026.91670139  .00239511  00000+0  11775-2 0  9992,2 44925  53.0408  94.8487 0001845 310.0343  85.8149 15.80982915  5927
STARLINK-1114,44927,53.0523,0.0002694,15.42916428,435.6709900587375,439.34325911306496,1 44927U 20001P   26026.91670139  .00103503  00000+0  22967-2 0  9990,2 44927  53.0523 168.7894 0002694 328.6383 292.5384 15.42916428  5609
STARLINK-1123,44930,53.0558,8.73e-05,15.06409538,546.577745119127,547.7869058733577,1 44930U 20001S   26026.72578337  .00001440  00000+0  11554-3 0  9998,2 44930  53.0558 175.0025 0000873  71.4547 288.6537 15.06409538333520
STARLINK-1144,44933,53.0323,0.0007387,15.97044687,277.7028544163395,287.5434614736878,1 44933U 20001V   26026.91670139  .00460877  98916-4  10401-2 0  9995,2 44933  53.0323  65.3980 0007387  19.1089 277.1847 15.97044687  6053
STARLINK-1094,44941,53.1312,9.96e-05,15.24180552,492.56279096252274,493.93157069134304,1 44941U 20001AD  26026.91670139  .01532991  00000+0  56614-1 0  9999,2 44941  53.1312 153.5168 0000996  97.0873 137.4360 15.24180552  5783
STARLINK-1122,44949,53.1327,0.0001354,15.24158461,492.38318169437207,494.2439705103816,1 44949U 20001AM  26026.91670139  .01605145  00000+0  59056-1 0  9992,2 44949  53.1327 153.5051 0001354 110.9361   9.0409 15.24158461  5731
STARLINK-1080,44961,53.0531,0.0005349,15.41664384,437.5491253524224,444.8444486377484,1 44961U 20001AZ  26026.91670139  .00053458  00000+0  12492-2 0  9993,2 44961  53.0531 126.8632 0005349 338.6445 287.9708 15.41664384  5799
STARLINK-1090,44968,53.0504,0.0001983,15.06401789,545.8327793846111,548.579370448123,1 44968U 20001BG  26026.56360397 -.00000914  00000+0 -42427-4 0  9997,2 44968  53.0504 135.7300 0001983  96.7376 263.3838 15.06401789334068
STARLINK-1132,45044,53.1596,0.0002103,15.37012167,453.51332890759204,456.38732543740025,1 45044U 20006A   26026.55599155  .00067384  00000+0  18283-2 0  9996,2 45044  53.1596  92.7989 0002103  65.7289 294.3934 15.37012167330435
STARLINK-1131,45047,53.0909,0.0001373,15.1548415,518.5620665703054,520.4561601930409,1 45047U 20006D   26026.91670139  .01227018  00000+0  58583-1 0  9990,2 45047  53.0909 114.5302 0001373 101.3744  91.9898 15.15484150  5685
STARLINK-1134,45048,53.0355,0.0004626,15.377305,449.66216132775116,455.98216474539277,1 45048U 20006E   26026.53810544  .00080853  00000+0  21369-2 0  9991,2 45048  53.0355  77.9548 0004626  54.3207 305.8225 15.37730500330645
STARLINK-1156,45054,53.0648,0.0001231,15.09416803,537.129520297517,538.8322685231215,1 45054U 20006L   26026.91670139  .01373341  00000+0  77923-1 0  9998,2 45054  53.0648 114.1300 0001231 117.4640 158.2468 15.09416803  5833
STARLINK-1159,45057,53.0507,0.0004411,15.67544101,362.95705095380254,368.90666850185335,1 45057U 20006P   26026.91670139  .00159706  00000+0  14177-2 0  9990,2 45057  53.0507  82.8941 0004411 322.5392 240.4456 15.67544101  5948
STARLINK-1166,45060,53.0533,0.0001431,15.39335568,447.09607111056175,449.049732384442,1 45060U 20006S   26026.78778117  .00085178  00000+0  21354-2 0  9990,2 45060  53.0533 111.5014 0001431  47.5514 312.5610 15.39335568330196
STARLINK-1169,45061,53.0723,0.0001133,15.1102814,532.2801538228259,533.8462317865151,1 45061U 20006T   26026.91670139  .00678117  00000+0  37451-1 0  9996,2 45061  53.0723 114.0962 0001133  93.0339  21.6669 15.11028140  5789
STARLINK-1171,45062,53.0499,0.0006417,15.48479873,416.8091906416266,425.53542420677513,1 45062U 20006U   26026.44150407  .00094351  00000+0  17324-2 0  9996,2 45062  53.0499  93.2434 0006417 242.0761 117.9597 15.48479873330421
STARLINK-1133,45064,53.1554,0.0001233,15.29330811,476.9662017309729,478.65687864098254,1 45064U 20006W   26026.91670139  .00019281  00000+0  67928-3 0  9994,2 45064  53.1554  91.8235 0001233  94.2400 202.4438 15.29330811  5843
STARLINK-1167,45071,53.1587,0.0001203,15.29277267,477.14677919384667,478.79635891556154,1 45071U 20006AD  26026.00002315  .00057167  00000+0  19830-2 0  9990,2 45071  53.1587  95.8886 0001203  59.1198 193.8873 15.29277267  5801
STARLINK-1168,45072,53.1591,0.0001317,15.29369795,476.79212010576157,478.59794626330313,1 45072U 20006AE  26026.55206348  .00008554  00000+0  30830-3 0  9993,2 45072  53.1591  93.3882 0001317  99.8784 260.2365 15.29369795330426
STARLINK-1172,45074,53.1597,0.0001228,15.30177865,474.4395615859594,476.1227610863825,1 45074U 20006AG  26026.91670139  .00018682  00000+0  64174-3 0  9999,2 45074  53.1597  91.8566 0001228  85.7558 332.6283 15.30177865  5834
STARLINK-1153,45080,53.1588,0.0001165,15.29349947,476.95563866076645,478.5530613453175,1 45080U 20006AN  26025.48107651 -.00001503  00000+0 -39787-4 0  9990,2 45080  53.1588  98.2113 0001165  95.2616 264.8517 15.29349947330265
STARLINK-1151,45081,53.0524,0.0008301,15.50182154,410.55379834468386,421.83374629288755,1 45081U 20006AP  26026.57340685  .00099344  00000+0  17159-2 0  9993,2 45081  53.0524  83.8003 0008301 357.8925   2.2047 15.50182154330566
STARLINK-1185,45087,53.0533,0.000119,15.06406228,546.3683558740986,548.0165842879769,1 45087U 20006AV  26026.54701828  .00006714  00000+0  46910-3 0  9993,2 45087  53.0533  75.8071 0001190  86.2712 273.8413 15.06406228330671
STARLINK-1183,45088,53.0537,0.0001787,15.06398069,545.9799153365911,548.4550370263787,1 45088U 20006AW  26026.37009023 -.00001623  00000+0 -90060-4 0  9995,2 45088  53.0537  76.6014 0001787  82.8100 277.3092 15.06398069330649
STARLINK-1152,45096,53.0438,0.0004823,15.33169207,463.06276064610574,469.6649661789543,1 45096U 20006BE  26026.75377287  .00066577  00000+0  20413-2 0  9996,2 45096  53.0438  43.4789 0004823  55.4067 304.7388 15.33169207331140
